TOMORROW-R2             
1 56962U 23084AG  26068.88846178  .00107013  00000+0  81619-3 0  9996
2 56962  97.5895 222.1734 0005114 248.1295 111.9424 15.71879583153326
STARLINK-11235 [DTC]    
1 60726U 24152G   26068.42393270  .00002187  00000+0  22908-4 0  9999
2 60726  53.1585 117.5442 0001322 102.5765 257.5401 15.69707961 88920
